{"type":"FeatureCollection","name":"aquawatch_ponds_bapatla","crs":{"type":"name","properties":{"name":"urn:ogc:def:crs:OGC:1.3:CRS84"}},"metadata":{"produced_by":"AquaWatch, AP AI Living Labs sovereign cluster","method":"object-based detection on multi-pass SAR","min_area_ha":0.25,"belts":{"bapatla":{"features":18,"hectares":10.7}},"total_features":18,"total_hectares":10.7,"CAVEAT":"Automatic detections from Sentinel-1 SAR, not a cadastral or surveyed product. Boundaries are raster-derived at 10 m and are approximate. Accuracy is still being measured against hand-checked optical imagery; the previously published F1 ~0.90 is agreement with the OBIA detector, NOT accuracy against the ground. Adjacent ponds that share a bund merge into ONE polygon, so a feature can be a farm block rather than a single pond: the feature count is a lower bound on the number of ponds, and area is the reliable quantity. Do not use as sole evidence for enforcement or for any legal determination of ownership, extent or permitting status."},"features":[{"type":"Feature","geometry":{"type":"Polygon","coordinates":[[[80.5562,16.04071],[80.5562,16.04062],[80.55611,16.04062],[80.55611,16.04044],[80.55601,16.04044],[80.55602,16.0398],[80.5563,16.0398],[80.5563,16.03998],[80.55639,16.03998],[80.55639,16.04008],[80.55686,16.04008],[80.55686,16.03999],[80.55723,16.03999],[80.55723,16.04017],[80.55742,16.04017],[80.55742,16.0399],[80.55751,16.0399],[80.55751,16.03972],[80.55789,16.03972],[80.55788,16.04017],[80.5577,16.04017],[80.5577,16.04026],[80.55742,16.04026],[80.55742,16.04044],[80.55714,16.04044],[80.55714,16.04053],[80.55695,16.04053],[80.55685,16.04071],[80.5562,16.04071]]]},"properties":{"feature_id":"bapatla-00000","belt":"bapatla","district":"","area_ha":1.25,"lon":80.556836,"lat":16.040236,"source":"obia","sensor":"Sentinel-1 RTC (VV), 10 m","season":"2024 kharif","detected":true,"surveyed":false,"likely_block":false}},{"type":"Feature","geometry":{"type":"Polygon","coordinates":[[[80.48389,16.02464],[80.48389,16.02454],[80.48379,16.02454],[80.48379,16.02427],[80.48398,16.02427],[80.48398,16.02355],[80.48408,16.02355],[80.48408,16.02346],[80.48464,16.02346],[80.48464,16.02382],[80.48473,16.02382],[80.48473,16.02455],[80.48463,16.02455],[80.48463,16.02464],[80.48389,16.02464]]]},"properties":{"feature_id":"bapatla-00001","belt":"bapatla","district":"","area_ha":1.05,"lon":80.484312,"lat":16.02409,"source":"obia","sensor":"Sentinel-1 RTC (VV), 10 m","season":"2024 kharif","detected":true,"surveyed":false,"likely_block":false}},{"type":"Feature","geometry":{"type":"Polygon","coordinates":[[[80.42632,16.02006],[80.42632,16.01979],[80.42641,16.01979],[80.42642,16.01961],[80.4266,16.01961],[80.4266,16.01898],[80.42707,16.01898],[80.42707,16.01907],[80.42735,16.01907],[80.42735,16.01934],[80.42754,16.01934],[80.42754,16.0197],[80.42744,16.0197],[80.42744,16.01979],[80.42726,16.01979],[80.42726,16.01988],[80.42698,16.01988],[80.42698,16.01997],[80.42679,16.01997],[80.42679,16.02006],[80.42632,16.02006]]]},"properties":{"feature_id":"bapatla-00002","belt":"bapatla","district":"","area_ha":1.04,"lon":80.426931,"lat":16.01953,"source":"obia","sensor":"Sentinel-1 RTC (VV), 10 m","season":"2024 kharif","detected":true,"surveyed":false,"likely_block":false}},{"type":"Feature","geometry":{"type":"Polygon","coordinates":[[[80.53964,16.00659],[80.53964,16.00623],[80.53973,16.00623],[80.53973,16.00614],[80.53964,16.00614],[80.53964,16.00587],[80.53973,16.00587],[80.53983,16.00442],[80.53992,16.00442],[80.53992,16.00433],[80.5402,16.00433],[80.5402,16.00469],[80.54011,16.00469],[80.54011,16.00524],[80.54002,16.00524],[80.54002,16.00533],[80.54011,16.00533],[80.54011,16.00614],[80.54001,16.00614],[80.54001,16.00659],[80.53964,16.00659]]]},"properties":{"feature_id":"bapatla-00003","belt":"bapatla","district":"","area_ha":0.95,"lon":80.53992,"lat":16.005503,"source":"obia","sensor":"Sentinel-1 RTC (VV), 10 m","season":"2024 kharif","detected":true,"surveyed":false,"likely_block":false}},{"type":"Feature","geometry":{"type":"Polygon","coordinates":[[[80.53945,16.00921],[80.53945,16.00876],[80.53954,16.00876],[80.53954,16.00759],[80.53964,16.00759],[80.53964,16.00713],[80.53992,16.00713],[80.53991,16.00858],[80.53982,16.00858],[80.53982,16.00921],[80.53945,16.00921]]]},"properties":{"feature_id":"bapatla-00004","belt":"bapatla","district":"","area_ha":0.85,"lon":80.539711,"lat":16.00821,"source":"obia","sensor":"Sentinel-1 RTC (VV), 10 m","season":"2024 kharif","detected":true,"surveyed":false,"likely_block":false}},{"type":"Feature","geometry":{"type":"Polygon","coordinates":[[[80.59614,16.03093],[80.59614,16.03048],[80.59632,16.03048],[80.59632,16.0303],[80.59642,16.0303],[80.59642,16.03021],[80.59651,16.03021],[80.59661,16.03003],[80.59698,16.03003],[80.59698,16.03012],[80.59707,16.03012],[80.59707,16.03093],[80.59614,16.03093]]]},"properties":{"feature_id":"bapatla-00005","belt":"bapatla","district":"","area_ha":0.83,"lon":80.596657,"lat":16.030539,"source":"obia","sensor":"Sentinel-1 RTC (VV), 10 m","season":"2024 kharif","detected":true,"surveyed":false,"likely_block":false}},{"type":"Feature","geometry":{"type":"Polygon","coordinates":[[[80.53993,16.00279],[80.53993,16.00243],[80.54002,16.00243],[80.54002,16.00189],[80.54012,16.00189],[80.54012,16.00162],[80.54002,16.00162],[80.54002,16.00135],[80.54012,16.00135],[80.54012,16.0009],[80.54049,16.0009],[80.54049,16.00117],[80.5404,16.00117],[80.5404,16.00198],[80.5403,16.00198],[80.5403,16.00207],[80.5404,16.00207],[80.5404,16.00234],[80.5403,16.00234],[80.5403,16.00261],[80.54021,16.00261],[80.54021,16.0028],[80.53993,16.00279]]]},"properties":{"feature_id":"bapatla-00006","belt":"bapatla","district":"","area_ha":0.75,"lon":80.54021,"lat":16.001833,"source":"obia","sensor":"Sentinel-1 RTC (VV), 10 m","season":"2024 kharif","detected":true,"surveyed":false,"likely_block":false}},{"type":"Feature","geometry":{"type":"Polygon","coordinates":[[[80.47815,16.03692],[80.47815,16.03683],[80.47797,16.03682],[80.47797,16.03655],[80.47843,16.03655],[80.47844,16.03628],[80.47928,16.03629],[80.47928,16.03665],[80.47909,16.03665],[80.47909,16.03674],[80.47862,16.03674],[80.47862,16.03683],[80.47843,16.03683],[80.47843,16.03692],[80.47815,16.03692]]]},"properties":{"feature_id":"bapatla-00007","belt":"bapatla","district":"","area_ha":0.63,"lon":80.478652,"lat":16.036573,"source":"obia","sensor":"Sentinel-1 RTC (VV), 10 m","season":"2024 kharif","detected":true,"surveyed":false,"likely_block":false}},{"type":"Feature","geometry":{"type":"Polygon","coordinates":[[[80.58993,16.001],[80.58994,16.00046],[80.59003,16.00046],[80.59003,16.00037],[80.59078,16.00028],[80.59078,16.00064],[80.59059,16.00073],[80.59059,16.00091],[80.5904,16.00091],[80.5904,16.001],[80.58993,16.001]]]},"properties":{"feature_id":"bapatla-00008","belt":"bapatla","district":"","area_ha":0.57,"lon":80.590329,"lat":16.000634,"source":"obia","sensor":"Sentinel-1 RTC (VV), 10 m","season":"2024 kharif","detected":true,"surveyed":false,"likely_block":false}},{"type":"Feature","geometry":{"type":"Polygon","coordinates":[[[80.54031,15.99909],[80.54031,15.99855],[80.5404,15.99855],[80.54041,15.99773],[80.54069,15.99773],[80.54068,15.99864],[80.54059,15.99864],[80.54059,15.99909],[80.54031,15.99909]]]},"properties":{"feature_id":"bapatla-00009","belt":"bapatla","district":"","area_ha":0.46,"lon":80.540511,"lat":15.998416,"source":"obia","sensor":"Sentinel-1 RTC (VV), 10 m","season":"2024 kharif","detected":true,"surveyed":false,"likely_block":false}},{"type":"Feature","geometry":{"type":"Polygon","coordinates":[[[80.59314,16.034],[80.59314,16.03391],[80.59305,16.03391],[80.59305,16.03364],[80.59314,16.03364],[80.59314,16.03355],[80.59333,16.03355],[80.59333,16.03346],[80.59361,16.03346],[80.59361,16.03355],[80.59379,16.03355],[80.59379,16.03382],[80.5937,16.03382],[80.5937,16.03391],[80.59351,16.03391],[80.59351,16.034],[80.59314,16.034]]]},"properties":{"feature_id":"bapatla-00010","belt":"bapatla","district":"","area_ha":0.37,"lon":80.593414,"lat":16.033736,"source":"obia","sensor":"Sentinel-1 RTC (VV), 10 m","season":"2024 kharif","detected":true,"surveyed":false,"likely_block":false}},{"type":"Feature","geometry":{"type":"Polygon","coordinates":[[[80.42585,16.02105],[80.42585,16.02096],[80.42566,16.02096],[80.42566,16.02069],[80.42594,16.02069],[80.42594,16.02078],[80.42604,16.02078],[80.42604,16.02069],[80.42651,16.02069],[80.4265,16.02096],[80.42641,16.02096],[80.42641,16.02105],[80.42585,16.02105]]]},"properties":{"feature_id":"bapatla-00011","belt":"bapatla","district":"","area_ha":0.32,"lon":80.426096,"lat":16.020864,"source":"obia","sensor":"Sentinel-1 RTC (VV), 10 m","season":"2024 kharif","detected":true,"surveyed":false,"likely_block":false}},{"type":"Feature","geometry":{"type":"Polygon","coordinates":[[[80.54021,16.00081],[80.54021,15.9999],[80.5405,15.9999],[80.54049,16.00081],[80.54021,16.00081]]]},"properties":{"feature_id":"bapatla-00012","belt":"bapatla","district":"","area_ha":0.3,"lon":80.540354,"lat":16.000355,"source":"obia","sensor":"Sentinel-1 RTC (VV), 10 m","season":"2024 kharif","detected":true,"surveyed":false,"likely_block":false}},{"type":"Feature","geometry":{"type":"Polygon","coordinates":[[[80.53878,16.01436],[80.53878,16.014],[80.53887,16.014],[80.53887,16.01391],[80.53906,16.01391],[80.53906,16.01373],[80.53934,16.01373],[80.53934,16.01409],[80.53925,16.01409],[80.53925,16.01418],[80.53915,16.01418],[80.53906,16.01436],[80.53878,16.01436]]]},"properties":{"feature_id":"bapatla-00013","belt":"bapatla","district":"","area_ha":0.29,"lon":80.539062,"lat":16.014055,"source":"obia","sensor":"Sentinel-1 RTC (VV), 10 m","season":"2024 kharif","detected":true,"surveyed":false,"likely_block":false}},{"type":"Feature","geometry":{"type":"Polygon","coordinates":[[[80.53992,16.00424],[80.53993,16.00352],[80.5403,16.00352],[80.5403,16.00397],[80.54021,16.00397],[80.5402,16.00424],[80.53992,16.00424]]]},"properties":{"feature_id":"bapatla-00014","belt":"bapatla","district":"","area_ha":0.29,"lon":80.540098,"lat":16.003857,"source":"obia","sensor":"Sentinel-1 RTC (VV), 10 m","season":"2024 kharif","detected":true,"surveyed":false,"likely_block":false}},{"type":"Feature","geometry":{"type":"Polygon","coordinates":[[[80.57354,16.01968],[80.57354,16.01914],[80.57363,16.01914],[80.57363,16.01905],[80.57391,16.01905],[80.57391,16.01968],[80.57354,16.01968]]]},"properties":{"feature_id":"bapatla-00015","belt":"bapatla","district":"","area_ha":0.27,"lon":80.573732,"lat":16.019373,"source":"obia","sensor":"Sentinel-1 RTC (VV), 10 m","season":"2024 kharif","detected":true,"surveyed":false,"likely_block":false}},{"type":"Feature","geometry":{"type":"Polygon","coordinates":[[[80.57417,16.03098],[80.57417,16.03062],[80.57464,16.03062],[80.57464,16.03071],[80.57482,16.03071],[80.57482,16.03098],[80.57417,16.03098]]]},"properties":{"feature_id":"bapatla-00016","belt":"bapatla","district":"","area_ha":0.26,"lon":80.574479,"lat":16.030811,"source":"obia","sensor":"Sentinel-1 RTC (VV), 10 m","season":"2024 kharif","detected":true,"surveyed":false,"likely_block":false}},{"type":"Feature","geometry":{"type":"Polygon","coordinates":[[[80.5438,16.02477],[80.5438,16.02441],[80.5439,16.02441],[80.5439,16.02423],[80.54427,16.02423],[80.54427,16.02459],[80.54418,16.02459],[80.54418,16.02477],[80.5438,16.02477]]]},"properties":{"feature_id":"bapatla-00017","belt":"bapatla","district":"","area_ha":0.26,"lon":80.544038,"lat":16.0245,"source":"obia","sensor":"Sentinel-1 RTC (VV), 10 m","season":"2024 kharif","detected":true,"surveyed":false,"likely_block":false}}]}