{"type":"FeatureCollection","name":"aquawatch_ponds_nellore","crs":{"type":"name","properties":{"name":"urn:ogc:def:crs:OGC:1.3:CRS84"}},"metadata":{"produced_by":"AquaWatch, AP AI Living Labs sovereign cluster","method":"object-based detection on multi-pass SAR","min_area_ha":0.25,"belts":{"nellore":{"features":2,"hectares":133.8}},"total_features":2,"total_hectares":133.8,"CAVEAT":"Automatic detections from Sentinel-1 SAR, not a cadastral or surveyed product. Boundaries are raster-derived at 10 m and are approximate. Accuracy is still being measured against hand-checked optical imagery; the previously published F1 ~0.90 is agreement with the OBIA detector, NOT accuracy against the ground. Adjacent ponds that share a bund merge into ONE polygon, so a feature can be a farm block rather than a single pond: the feature count is a lower bound on the number of ponds, and area is the reliable quantity. Do not use as sole evidence for enforcement or for any legal determination of ownership, extent or permitting status."},"features":[{"type":"Feature","geometry":{"type":"Polygon","coordinates":[[[80.18006,14.5007],[80.18006,14.50061],[80.17996,14.50061],[80.17996,14.50006],[80.17969,14.50006],[80.17969,14.50024],[80.17987,14.50024],[80.17987,14.50052],[80.1795,14.50051],[80.1795,14.50042],[80.17931,14.50042],[80.17932,14.50006],[80.17922,14.50006],[80.17922,14.49979],[80.1795,14.49979],[80.1795,14.49988],[80.17959,14.49988],[80.1796,14.49961],[80.17969,14.49961],[80.17969,14.49934],[80.17978,14.49934],[80.17969,14.49916],[80.1795,14.49916],[80.1796,14.49862],[80.18006,14.49862],[80.17997,14.49826],[80.17979,14.49826],[80.17979,14.49835],[80.17951,14.49835],[80.17951,14.49807],[80.17942,14.49807],[80.17942,14.49735],[80.1797,14.49735],[80.1797,14.49744],[80.17979,14.49744],[80.17979,14.49708],[80.17998,14.49708],[80.17998,14.49699],[80.18016,14.49699],[80.18016,14.4969],[80.18025,14.4969],[80.18026,14.49654],[80.18063,14.49654],[80.18063,14.49645],[80.18091,14.49645],[80.18091,14.49672],[80.18063,14.49672],[80.18063,14.49681],[80.181,14.49681],[80.181,14.49645],[80.18109,14.49645],[80.18109,14.49627],[80.18156,14.49627],[80.18156,14.49654],[80.18146,14.49654],[80.18146,14.49663],[80.18165,14.49663],[80.18165,14.49645],[80.18193,14.49645],[80.18193,14.49682],[80.18202,14.49682],[80.18202,14.49636],[80.18183,14.49636],[80.18184,14.49609],[80.18239,14.49609],[80.18239,14.49619],[80.18276,14.49619],[80.18276,14.49628],[80.18286,14.49628],[80.18285,14.49646],[80.18304,14.49646],[80.18304,14.49619],[80.18332,14.49619],[80.18332,14.49601],[80.1836,14.49601],[80.1836,14.49628],[80.18425,14.49628],[80.18425,14.4961],[80.18378,14.4961],[80.18378,14.49583],[80.18388,14.49583],[80.18388,14.49574],[80.18416,14.49574],[80.18416,14.49583],[80.18443,14.49583],[80.18443,14.4961],[80.18453,14.4961],[80.18453,14.49592],[80.1849,14.49592],[80.1849,14.49619],[80.18499,14.49619],[80.18499,14.49583],[80.18518,14.49583],[80.18518,14.49565],[80.18555,14.49565],[80.18555,14.49574],[80.18564,14.49574],[80.18564,14.49565],[80.18601,14.49566],[80.18601,14.49547],[80.18629,14.49548],[80.18629,14.49584],[80.18648,14.49584],[80.18648,14.49575],[80.18666,14.49575],[80.18666,14.49566],[80.18638,14.49566],[80.18638,14.49539],[80.18685,14.49539],[80.18685,14.49548],[80.18722,14.49548],[80.18722,14.49539],[80.18768,14.49539],[80.18778,14.49521],[80.18871,14.49521],[80.1887,14.4953],[80.18908,14.4953],[80.18908,14.49485],[80.18954,14.49485],[80.18954,14.49476],[80.18982,14.49476],[80.18982,14.49504],[80.18991,14.49504],[80.18991,14.49522],[80.19,14.49522],[80.19,14.49513],[80.1901,14.49513],[80.1901,14.49486],[80.19028,14.49477],[80.19029,14.49449],[80.19047,14.4945],[80.19047,14.49441],[80.19075,14.49441],[80.19075,14.49468],[80.19066,14.49468],[80.19066,14.49477],[80.19084,14.49477],[80.19084,14.49495],[80.19103,14.49504],[80.19112,14.49486],[80.19093,14.49486],[80.19093,14.49459],[80.19121,14.49459],[80.19121,14.49486],[80.19158,14.49486],[80.19168,14.49468],[80.19196,14.49468],[80.19195,14.49477],[80.19205,14.49477],[80.19205,14.49459],[80.19214,14.49459],[80.19223,14.49441],[80.19242,14.49441],[80.19242,14.49432],[80.19261,14.49432],[80.19261,14.49423],[80.19307,14.49423],[80.19307,14.49396],[80.19344,14.49396],[80.19344,14.49433],[80.19335,14.49432],[80.19344,14.49451],[80.194,14.49442],[80.194,14.49415],[80.19437,14.49415],[80.19437,14.49433],[80.19446,14.49433],[80.19446,14.49424],[80.19474,14.49424],[80.19474,14.49442],[80.19483,14.49442],[80.19483,14.49415],[80.19511,14.49415],[80.19511,14.49388],[80.19567,14.49388],[80.19567,14.49406],[80.19576,14.49406],[80.19576,14.49379],[80.19604,14.49379],[80.19604,14.49397],[80.19623,14.49406],[80.19623,14.49388],[80.19688,14.49388],[80.19688,14.49379],[80.19706,14.49379],[80.19706,14.4937],[80.19716,14.4937],[80.19716,14.49352],[80.19734,14.49352],[80.19734,14.49343],[80.19762,14.49344],[80.19762,14.49362],[80.19771,14.49362],[80.19771,14.49344],[80.19808,14.49344],[80.19808,14.49353],[80.19836,14.49353],[80.19836,14.49362],[80.19855,14.49371],[80.19855,14.49353],[80.19864,14.49353],[80.19864,14.49344],[80.19855,14.49344],[80.19855,14.49317],[80.19883,14.49317],[80.19883,14.49326],[80.19929,14.49326],[80.19929,14.49299],[80.19938,14.49299],[80.19948,14.49281],[80.19976,14.49281],[80.19985,14.49299],[80.20003,14.49299],[80.20002,14.49661],[80.19984,14.49661],[80.19984,14.4967],[80.20002,14.4967],[80.20002,14.49833],[80.19974,14.49832],[80.19974,14.49841],[80.20001,14.49842],[80.20001,14.50013],[80.19992,14.50013],[80.19992,14.50022],[80.20001,14.50022],[80.20001,14.50077],[80.19667,14.50076],[80.19667,14.50048],[80.19676,14.50048],[80.19676,14.50039],[80.19657,14.50039],[80.19648,14.50021],[80.19639,14.50021],[80.19648,14.50075],[80.19481,14.50075],[80.19481,14.50057],[80.19472,14.50057],[80.19472,14.50048],[80.19463,14.50048],[80.19462,14.50075],[80.19333,14.50074],[80.19333,14.50047],[80.19323,14.50047],[80.19323,14.50074],[80.19165,14.50074],[80.19166,14.50047],[80.19138,14.50047],[80.19138,14.50074],[80.19054,14.50073],[80.19054,14.50055],[80.19045,14.50055],[80.19045,14.5001],[80.19036,14.5001],[80.19036,14.49983],[80.19045,14.49983],[80.19045,14.49974],[80.19027,14.49974],[80.19027,14.49956],[80.19008,14.49956],[80.19008,14.49965],[80.18999,14.49965],[80.18999,14.49974],[80.19017,14.49974],[80.19017,14.49983],[80.19027,14.49983],[80.19026,14.50037],[80.18999,14.50037],[80.18999,14.50046],[80.1898,14.50046],[80.1898,14.50073],[80.18785,14.50072],[80.18785,14.50036],[80.18794,14.50036],[80.18794,14.50018],[80.18804,14.50018],[80.18804,14.50009],[80.18785,14.50009],[80.18785,14.50027],[80.18776,14.50027],[80.18776,14.50072],[80.18516,14.50072],[80.18516,14.50053],[80.18497,14.50053],[80.18497,14.50071],[80.18423,14.50071],[80.18423,14.50053],[80.18414,14.50053],[80.18414,14.50071],[80.18293,14.50071],[80.18293,14.50062],[80.18284,14.50062],[80.18284,14.50071],[80.1807,14.5007],[80.18071,14.50034],[80.18061,14.50034],[80.18061,14.5007],[80.18006,14.5007]],[[80.19166,14.50047],[80.19175,14.50047],[80.19175,14.50038],[80.19166,14.50038],[80.19166,14.50047]],[[80.19435,14.50048],[80.19463,14.50048],[80.19463,14.50012],[80.19426,14.50011],[80.19426,14.50002],[80.19398,14.50002],[80.19398,14.50011],[80.19435,14.5002],[80.19435,14.50048]],[[80.19527,14.50048],[80.19546,14.50048],[80.19546,14.5003],[80.19528,14.5003],[80.19527,14.50048]],[[80.19574,14.50048],[80.19592,14.50039],[80.19593,14.50021],[80.19583,14.50021],[80.19584,14.4994],[80.19574,14.4994],[80.19574,14.49931],[80.19546,14.4993],[80.19546,14.49921],[80.19519,14.49921],[80.19519,14.49939],[80.19565,14.4994],[80.19565,14.49958],[80.19574,14.49958],[80.19574,14.49985],[80.19546,14.49985],[80.19546,14.49994],[80.19537,14.49994],[80.19537,14.50003],[80.19546,14.50003],[80.19546,14.50021],[80.19574,14.50021],[80.19574,14.50048]],[[80.19741,14.50049],[80.19769,14.50049],[80.19769,14.50022],[80.1975,14.50022],[80.1975,14.50031],[80.19741,14.50031],[80.19741,14.50049]],[[80.18024,14.50034],[80.18033,14.50034],[80.18034,14.50025],[80.18024,14.50025],[80.18024,14.50034]],[[80.18498,14.50026],[80.18507,14.50026],[80.18507,14.50017],[80.18498,14.50017],[80.18498,14.50026]],[[80.18618,14.50027],[80.18646,14.50027],[80.18646,14.50018],[80.18618,14.50018],[80.18618,14.50027]],[[80.19954,14.50031],[80.19964,14.50031],[80.19964,14.50022],[80.19954,14.50022],[80.19954,14.50031]],[[80.1885,14.50018],[80.18859,14.50018],[80.18859,14.50009],[80.1885,14.50009],[80.1885,14.50018]],[[80.19713,14.50021],[80.19722,14.50021],[80.19722,14.50012],[80.19713,14.50012],[80.19713,14.50021]],[[80.19927,14.50022],[80.19954,14.50022],[80.19955,14.49995],[80.19945,14.49995],[80.19945,14.50013],[80.19927,14.50013],[80.19927,14.50022]],[[80.18841,14.50009],[80.1885,14.50009],[80.1885,14.5],[80.18841,14.5],[80.18841,14.50009]],[[80.19704,14.50012],[80.19713,14.50012],[80.19713,14.50003],[80.19704,14.50003],[80.19704,14.50012]],[[80.18182,14.49998],[80.18191,14.49998],[80.18191,14.49971],[80.18182,14.49971],[80.18182,14.49998]],[[80.18962,14.50001],[80.18971,14.50001],[80.18971,14.49992],[80.18962,14.49992],[80.18962,14.50001]],[[80.19221,14.50002],[80.19231,14.50002],[80.19231,14.49993],[80.19221,14.49993],[80.19221,14.50002]],[[80.19463,14.50002],[80.19472,14.50003],[80.19472,14.49993],[80.19463,14.49993],[80.19463,14.50002]],[[80.19676,14.50003],[80.19685,14.50003],[80.19685,14.49994],[80.19676,14.49994],[80.19676,14.50003]],[[80.18952,14.49992],[80.18962,14.49992],[80.18962,14.49983],[80.18952,14.49983],[80.18952,14.49992]],[[80.19778,14.49995],[80.19797,14.49995],[80.19797,14.49986],[80.19778,14.49985],[80.19778,14.49995]],[[80.18266,14.4998],[80.18275,14.4998],[80.18275,14.49971],[80.18266,14.49971],[80.18266,14.4998]],[[80.1962,14.49985],[80.1963,14.49985],[80.1963,14.49931],[80.19611,14.49922],[80.19602,14.4994],[80.19621,14.4994],[80.1962,14.49985]],[[80.1873,14.49973],[80.18739,14.49973],[80.18739,14.49928],[80.1873,14.49928],[80.1873,14.49973]],[[80.19296,14.49975],[80.19305,14.49975],[80.19305,14.49957],[80.19287,14.49957],[80.19296,14.49975]],[[80.19416,14.49975],[80.19435,14.49975],[80.19435,14.49966],[80.19416,14.49966],[80.19416,14.49975]],[[80.19491,14.49975],[80.195,14.49975],[80.195,14.49966],[80.19491,14.49966],[80.19491,14.49975]],[[80.19797,14.49977],[80.19806,14.49977],[80.19806,14.4994],[80.19797,14.4994],[80.19797,14.49949],[80.19769,14.49949],[80.19769,14.49958],[80.19797,14.49958],[80.19797,14.49977]],[[80.1989,14.49977],[80.19917,14.49977],[80.19918,14.49968],[80.1989,14.49968],[80.1989,14.49977]],[[80.18962,14.49965],[80.18971,14.49965],[80.18971,14.49947],[80.18962,14.49947],[80.18962,14.49965]],[[80.19454,14.49966],[80.19472,14.49966],[80.19472,14.49939],[80.19463,14.49939],[80.19463,14.49957],[80.19454,14.49957],[80.19454,14.49966]],[[80.1988,14.49968],[80.1989,14.49968],[80.1989,14.4995],[80.1988,14.4995],[80.1988,14.49968]],[[80.18145,14.49953],[80.18154,14.49953],[80.18155,14.49926],[80.18145,14.49926],[80.18145,14.49953]],[[80.19055,14.49956],[80.19073,14.49956],[80.19073,14.49947],[80.19055,14.49947],[80.19055,14.49956]],[[80.19509,14.49957],[80.19519,14.49957],[80.19519,14.49948],[80.19509,14.49948],[80.19509,14.49957]],[[80.19704,14.49958],[80.19713,14.49958],[80.19713,14.49949],[80.19704,14.49949],[80.19704,14.49958]],[[80.18368,14.49944],[80.18386,14.49945],[80.18386,14.49935],[80.18368,14.49935],[80.18368,14.49944]],[[80.18804,14.49946],[80.18813,14.49946],[80.18813,14.49937],[80.18804,14.49937],[80.18804,14.49946]],[[80.19129,14.49947],[80.19138,14.49947],[80.19138,14.49938],[80.19129,14.49938],[80.19129,14.49947]],[[80.18897,14.49937],[80.18906,14.49937],[80.18906,14.49928],[80.18897,14.49928],[80.18897,14.49937]],[[80.18971,14.49938],[80.1898,14.49938],[80.1898,14.49919],[80.19008,14.4992],[80.19008,14.49883],[80.18999,14.49883],[80.18999,14.49874],[80.18981,14.49874],[80.18981,14.49856],[80.18971,14.49856],[80.18971,14.49883],[80.18953,14.49883],[80.18953,14.49892],[80.18971,14.49892],[80.18971,14.49938]],[[80.19936,14.49941],[80.19945,14.49941],[80.19945,14.49932],[80.19936,14.49932],[80.19936,14.49941]],[[80.18136,14.49926],[80.18145,14.49926],[80.18145,14.49917],[80.18136,14.49917],[80.18136,14.49926]],[[80.19055,14.4992],[80.19064,14.4992],[80.19064,14.49911],[80.19055,14.49911],[80.19055,14.4992]],[[80.19695,14.49922],[80.19714,14.49922],[80.19714,14.49904],[80.19695,14.49904],[80.19695,14.49922]],[[80.18452,14.49909],[80.18461,14.49909],[80.18461,14.499],[80.18452,14.499],[80.18452,14.49909]],[[80.18637,14.49909],[80.18646,14.49909],[80.18646,14.499],[80.18637,14.499],[80.18637,14.49909]],[[80.19092,14.49911],[80.1912,14.49911],[80.1912,14.49884],[80.19101,14.49884],[80.19101,14.49902],[80.19092,14.49902],[80.19092,14.49911]],[[80.18229,14.49899],[80.18238,14.49899],[80.18247,14.49881],[80.18229,14.49881],[80.18229,14.49899]],[[80.19621,14.49904],[80.1963,14.49904],[80.1963,14.49895],[80.19649,14.49895],[80.19649,14.49886],[80.1963,14.49886],[80.1963,14.49876],[80.19612,14.49867],[80.19612,14.49894],[80.19621,14.49895],[80.19621,14.49904]],[[80.18099,14.49889],[80.18108,14.49889],[80.18108,14.49844],[80.1809,14.49853],[80.1809,14.49862],[80.18099,14.49862],[80.18099,14.49889]],[[80.19862,14.49895],[80.19871,14.49895],[80.19871,14.49886],[80.19862,14.49886],[80.19862,14.49895]],[[80.19899,14.49895],[80.19908,14.49896],[80.19909,14.49886],[80.19927,14.49887],[80.19927,14.49868],[80.19899,14.49868],[80.19899,14.49895]],[[80.18034,14.4988],[80.18043,14.4988],[80.18043,14.49871],[80.18034,14.49871],[80.18034,14.4988]],[[80.18377,14.49881],[80.18405,14.49881],[80.18405,14.49872],[80.18387,14.49863],[80.18377,14.49881]],[[80.18721,14.49882],[80.1873,14.49882],[80.1873,14.49873],[80.18721,14.49873],[80.18721,14.49882]],[[80.19435,14.49885],[80.19454,14.49885],[80.19454,14.49867],[80.19417,14.49867],[80.19417,14.49876],[80.19435,14.49876],[80.19435,14.49885]],[[80.19741,14.49886],[80.19751,14.49886],[80.19751,14.49877],[80.19742,14.49877],[80.19741,14.49886]],[[80.19268,14.49875],[80.19278,14.49875],[80.19278,14.49866],[80.19268,14.49866],[80.19268,14.49875]],[[80.1938,14.49876],[80.19389,14.49876],[80.19389,14.49867],[80.1938,14.49867],[80.1938,14.49876]],[[80.19769,14.49877],[80.19779,14.49877],[80.19779,14.49868],[80.19769,14.49868],[80.19769,14.49877]],[[80.18164,14.49862],[80.18173,14.49862],[80.18173,14.49853],[80.18164,14.49853],[80.18164,14.49862]],[[80.18043,14.49853],[80.18053,14.49853],[80.18053,14.49826],[80.18034,14.49826],[80.18034,14.49835],[80.18044,14.49835],[80.18043,14.49853]],[[80.19315,14.49857],[80.19324,14.49857],[80.19324,14.49839],[80.19315,14.49839],[80.19315,14.49857]],[[80.1989,14.49859],[80.19899,14.49859],[80.19899,14.4985],[80.1989,14.4985],[80.1989,14.49859]],[[80.1834,14.49836],[80.1835,14.49836],[80.1835,14.49827],[80.1834,14.49827],[80.1834,14.49836]],[[80.18869,14.49838],[80.18879,14.49838],[80.18879,14.49829],[80.18869,14.49829],[80.18869,14.49838]],[[80.195,14.4984],[80.1951,14.4984],[80.1951,14.49831],[80.195,14.49831],[80.195,14.4984]],[[80.19537,14.4984],[80.19556,14.4984],[80.19556,14.49822],[80.19538,14.49822],[80.19537,14.4984]],[[80.19872,14.49841],[80.19881,14.49841],[80.19881,14.49832],[80.19872,14.49832],[80.19872,14.49841]],[[80.18823,14.49829],[80.18832,14.49829],[80.18832,14.4981],[80.18823,14.4981],[80.18823,14.49829]],[[80.19435,14.49831],[80.19454,14.49831],[80.19454,14.49813],[80.19445,14.49813],[80.19435,14.49831]],[[80.19779,14.49832],[80.19788,14.49832],[80.19788,14.49823],[80.19779,14.49823],[80.19779,14.49832]],[[80.19853,14.49832],[80.19862,14.49832],[80.19862,14.49814],[80.19853,14.49814],[80.19853,14.49832]],[[80.18183,14.49817],[80.18192,14.49817],[80.18192,14.49808],[80.18183,14.49808],[80.18183,14.49817]],[[80.1964,14.49822],[80.19649,14.49822],[80.19649,14.49813],[80.1964,14.49813],[80.1964,14.49822]],[[80.18944,14.49811],[80.18953,14.49811],[80.18953,14.49802],[80.18944,14.49802],[80.18944,14.49811]],[[80.19668,14.49813],[80.19677,14.49813],[80.19686,14.49795],[80.19668,14.49795],[80.19668,14.49813]],[[80.19732,14.49814],[80.19742,14.49814],[80.19742,14.49805],[80.19732,14.49805],[80.19732,14.49814]],[[80.18396,14.498],[80.18406,14.498],[80.18406,14.49791],[80.18396,14.49791],[80.18396,14.498]],[[80.18962,14.49802],[80.18972,14.49802],[80.18972,14.49793],[80.18962,14.49793],[80.18962,14.49802]],[[80.19166,14.49803],[80.19176,14.49803],[80.19176,14.49785],[80.19157,14.49784],[80.19166,14.49803]],[[80.19333,14.49803],[80.19343,14.49803],[80.19343,14.49794],[80.19334,14.49794],[80.19333,14.49803]],[[80.19408,14.49803],[80.19417,14.49803],[80.19417,14.49794],[80.19408,14.49794],[80.19408,14.49803]],[[80.18368,14.49791],[80.18396,14.49791],[80.18396,14.49764],[80.18387,14.49764],[80.18387,14.49782],[80.18368,14.49782],[80.18368,14.49791]],[[80.19352,14.49794],[80.19371,14.49794],[80.19371,14.49785],[80.19352,14.49785],[80.19352,14.49794]],[[80.18136,14.49781],[80.18146,14.49781],[80.18146,14.49763],[80.18137,14.49763],[80.18136,14.49781]],[[80.1989,14.49787],[80.199,14.49787],[80.199,14.49778],[80.1989,14.49778],[80.1989,14.49787]],[[80.17979,14.49771],[80.17988,14.49771],[80.17988,14.49762],[80.17979,14.49762],[80.17979,14.49771]],[[80.18183,14.49772],[80.18192,14.49772],[80.18192,14.49763],[80.18183,14.49763],[80.18183,14.49772]],[[80.19074,14.49775],[80.19083,14.49775],[80.19083,14.49757],[80.19074,14.49757],[80.19074,14.49775]],[[80.19185,14.49776],[80.19194,14.49776],[80.19194,14.49766],[80.19185,14.49766],[80.19185,14.49776]],[[80.19575,14.49777],[80.19593,14.49777],[80.19593,14.49768],[80.19612,14.49759],[80.19612,14.4975],[80.19575,14.49741],[80.19575,14.49714],[80.19584,14.49714],[80.19594,14.49696],[80.19584,14.49696],[80.19584,14.49686],[80.19575,14.49686],[80.19575,14.49695],[80.19529,14.49695],[80.19529,14.49677],[80.19501,14.49677],[80.19501,14.49695],[80.19519,14.49695],[80.19519,14.49731],[80.19464,14.49731],[80.19464,14.49749],[80.19473,14.49749],[80.19473,14.4974],[80.19501,14.4974],[80.19501,14.49768],[80.19519,14.49768],[80.19519,14.49759],[80.19547,14.49759],[80.19547,14.4975],[80.19575,14.4975],[80.19575,14.49777]],[[80.1976,14.49777],[80.1977,14.49778],[80.1977,14.49768],[80.1976,14.49768],[80.1976,14.49777]],[[80.18109,14.49763],[80.18118,14.49763],[80.18118,14.49718],[80.181,14.49727],[80.181,14.49736],[80.18109,14.49736],[80.18109,14.49763]],[[80.18174,14.49763],[80.18183,14.49763],[80.18183,14.49754],[80.18174,14.49754],[80.18174,14.49763]],[[80.19213,14.49758],[80.19222,14.49758],[80.19222,14.49749],[80.19213,14.49748],[80.19213,14.49758]],[[80.18276,14.49745],[80.18285,14.49745],[80.18285,14.49736],[80.18276,14.49736],[80.18276,14.49745]],[[80.18461,14.49746],[80.18471,14.49746],[80.18471,14.49719],[80.18452,14.49719],[80.18452,14.49728],[80.18461,14.49728],[80.18461,14.49746]],[[80.19102,14.49748],[80.1913,14.49748],[80.1913,14.4973],[80.19111,14.49721],[80.19111,14.4973],[80.19102,14.4973],[80.19102,14.49748]],[[80.19965,14.49751],[80.19974,14.49751],[80.19974,14.49742],[80.19965,14.49742],[80.19965,14.49751]],[[80.19621,14.49741],[80.19631,14.49741],[80.19631,14.49732],[80.19621,14.49732],[80.19621,14.49741]],[[80.18693,14.49729],[80.18703,14.49729],[80.18703,14.4972],[80.18693,14.4972],[80.18693,14.49729]],[[80.19844,14.49733],[80.19872,14.49733],[80.19872,14.49724],[80.19844,14.49724],[80.19844,14.49733]],[[80.19009,14.49721],[80.19018,14.49721],[80.19018,14.49712],[80.19009,14.49712],[80.19009,14.49721]],[[80.18629,14.4971],[80.18638,14.4971],[80.18638,14.49692],[80.18629,14.49692],[80.18629,14.4971]],[[80.18721,14.49711],[80.18731,14.49711],[80.18731,14.49693],[80.18721,14.49693],[80.18721,14.49711]],[[80.18842,14.49711],[80.18851,14.49711],[80.18851,14.49693],[80.18842,14.49693],[80.18842,14.49711]],[[80.19046,14.49712],[80.19065,14.49712],[80.19065,14.49703],[80.19046,14.49703],[80.19046,14.49712]],[[80.19325,14.49713],[80.19352,14.49713],[80.19352,14.49704],[80.19343,14.49704],[80.19343,14.49695],[80.19325,14.49695],[80.19325,14.49713]],[[80.19946,14.49715],[80.19956,14.49715],[80.19956,14.49706],[80.19946,14.49706],[80.19946,14.49715]],[[80.1848,14.49701],[80.18489,14.49701],[80.18489,14.49692],[80.1848,14.49692],[80.1848,14.49701]],[[80.19028,14.49703],[80.19046,14.49703],[80.19037,14.49648],[80.19028,14.49648],[80.19028,14.49703]],[[80.19102,14.49703],[80.19111,14.49703],[80.19111,14.49694],[80.19102,14.49694],[80.19102,14.49703]],[[80.181,14.4969],[80.18109,14.4969],[80.18109,14.49681],[80.181,14.49681],[80.181,14.4969]],[[80.18211,14.49691],[80.1822,14.49691],[80.1822,14.49682],[80.18211,14.49682],[80.18211,14.49691]],[[80.18656,14.49692],[80.18666,14.49692],[80.18666,14.49683],[80.18657,14.49683],[80.18656,14.49692]],[[80.18935,14.49693],[80.18944,14.49693],[80.18944,14.49684],[80.18935,14.49684],[80.18935,14.49693]],[[80.19158,14.49694],[80.19167,14.49694],[80.19167,14.49685],[80.19158,14.49685],[80.19158,14.49694]],[[80.1926,14.49694],[80.19287,14.49694],[80.19288,14.49676],[80.19297,14.49676],[80.19297,14.49667],[80.19269,14.49667],[80.19269,14.49676],[80.1926,14.49676],[80.1926,14.49694]],[[80.18471,14.49683],[80.1848,14.49683],[80.1848,14.49674],[80.18471,14.49674],[80.18471,14.49683]],[[80.18527,14.49683],[80.18536,14.49683],[80.18536,14.49674],[80.18527,14.49674],[80.18527,14.49683]],[[80.18926,14.49684],[80.18935,14.49684],[80.18935,14.49675],[80.18926,14.49675],[80.18926,14.49684]],[[80.1823,14.49673],[80.18239,14.49673],[80.18239,14.49664],[80.1823,14.49664],[80.1823,14.49673]],[[80.18304,14.49673],[80.18313,14.49673],[80.18313,14.49664],[80.18304,14.49664],[80.18304,14.49673]],[[80.18786,14.49675],[80.18796,14.49675],[80.18796,14.49666],[80.18786,14.49666],[80.18786,14.49675]],[[80.18842,14.49666],[80.18851,14.49666],[80.18852,14.4963],[80.18842,14.4963],[80.18842,14.49666]],[[80.19557,14.49668],[80.19566,14.49668],[80.19566,14.49659],[80.19557,14.49659],[80.19557,14.49668]],[[80.18573,14.49647],[80.18582,14.49647],[80.18582,14.49638],[80.18573,14.49638],[80.18573,14.49647]],[[80.19037,14.49648],[80.19046,14.49648],[80.19046,14.49639],[80.19037,14.49639],[80.19037,14.49648]],[[80.19371,14.4965],[80.1938,14.4965],[80.19381,14.49595],[80.19371,14.49595],[80.19371,14.49604],[80.19353,14.49604],[80.19353,14.49622],[80.19371,14.49622],[80.19371,14.4965]],[[80.19733,14.49651],[80.19742,14.49651],[80.19752,14.49633],[80.19724,14.49633],[80.19733,14.49651]],[[80.19937,14.49652],[80.19946,14.49652],[80.19947,14.49643],[80.19965,14.49643],[80.19965,14.49634],[80.19937,14.49633],[80.19937,14.49652]],[[80.18332,14.49637],[80.18341,14.49637],[80.18341,14.49628],[80.18332,14.49628],[80.18332,14.49637]],[[80.18787,14.49639],[80.18796,14.49639],[80.18796,14.4963],[80.18787,14.49629],[80.18787,14.49639]],[[80.18926,14.49639],[80.18963,14.49639],[80.18963,14.4963],[80.18926,14.4963],[80.18926,14.49639]],[[80.1952,14.49641],[80.19529,14.49641],[80.19529,14.49614],[80.1951,14.49614],[80.1951,14.49623],[80.1952,14.49623],[80.1952,14.49641]],[[80.19585,14.49641],[80.19594,14.49641],[80.19594,14.49632],[80.19585,14.49632],[80.19585,14.49641]],[[80.19603,14.49632],[80.19612,14.49632],[80.19613,14.49623],[80.19603,14.49623],[80.19603,14.49632]],[[80.19789,14.49633],[80.19798,14.49633],[80.19798,14.49624],[80.19789,14.49624],[80.19789,14.49633]],[[80.19928,14.49633],[80.19937,14.49633],[80.19937,14.49597],[80.19947,14.49597],[80.19947,14.49579],[80.19928,14.49579],[80.19928,14.49633]],[[80.18991,14.49621],[80.19009,14.49612],[80.19009,14.49594],[80.19,14.49594],[80.18991,14.49558],[80.18982,14.49558],[80.18982,14.49549],[80.18954,14.49549],[80.18954,14.49558],[80.18935,14.49558],[80.18935,14.49567],[80.18945,14.49567],[80.18945,14.49585],[80.18954,14.49585],[80.18954,14.49567],[80.18982,14.49567],[80.18982,14.49612],[80.18991,14.49612],[80.18991,14.49621]],[[80.19186,14.49622],[80.19195,14.49622],[80.19195,14.49577],[80.19186,14.49577],[80.19186,14.49622]],[[80.19232,14.49622],[80.19251,14.49622],[80.19251,14.49604],[80.19232,14.49604],[80.19232,14.49595],[80.19223,14.49595],[80.19223,14.49613],[80.19232,14.49613],[80.19232,14.49622]],[[80.19297,14.49622],[80.19316,14.49622],[80.19316,14.49613],[80.19297,14.49613],[80.19297,14.49622]],[[80.19817,14.49624],[80.19826,14.49624],[80.19826,14.49606],[80.19817,14.49606],[80.19817,14.49624]],[[80.19538,14.49614],[80.19557,14.49605],[80.19557,14.49587],[80.19538,14.49587],[80.19538,14.49614]],[[80.1965,14.49614],[80.19668,14.49614],[80.19668,14.49596],[80.1965,14.49596],[80.1965,14.49614]],[[80.18815,14.49602],[80.18824,14.49602],[80.18824,14.49584],[80.18796,14.49584],[80.18796,14.49593],[80.18815,14.49593],[80.18815,14.49602]],[[80.1887,14.49603],[80.18889,14.49594],[80.18898,14.49558],[80.1887,14.49557],[80.1887,14.49576],[80.18861,14.49575],[80.18861,14.49594],[80.1887,14.49594],[80.1887,14.49603]],[[80.19084,14.49603],[80.19093,14.49603],[80.19093,14.49585],[80.19084,14.49585],[80.19084,14.49603]],[[80.19733,14.49606],[80.19742,14.49606],[80.19743,14.49597],[80.19733,14.49597],[80.19733,14.49606]],[[80.19882,14.49606],[80.19891,14.49606],[80.19891,14.49588],[80.19882,14.49588],[80.19882,14.49606]],[[80.19121,14.49594],[80.19139,14.49595],[80.19139,14.49585],[80.19121,14.49585],[80.19121,14.49594]],[[80.19752,14.49597],[80.19789,14.49597],[80.19789,14.49588],[80.1977,14.49588],[80.1977,14.49561],[80.19761,14.49561],[80.19761,14.49588],[80.19752,14.49588],[80.19752,14.49597]],[[80.18824,14.49584],[80.18833,14.49584],[80.18833,14.49575],[80.18824,14.49575],[80.18824,14.49584]],[[80.19149,14.49586],[80.19158,14.49586],[80.19158,14.49577],[80.19149,14.49576],[80.19149,14.49586]],[[80.19501,14.49587],[80.19511,14.49587],[80.19511,14.49578],[80.19501,14.49578],[80.19501,14.49587]],[[80.19446,14.49578],[80.19455,14.49578],[80.19455,14.49568],[80.19446,14.49568],[80.19446,14.49578]],[[80.19232,14.49568],[80.19242,14.49568],[80.19242,14.49559],[80.19232,14.49559],[80.19232,14.49568]],[[80.19084,14.49558],[80.19093,14.49558],[80.19093,14.49549],[80.19084,14.49549],[80.19084,14.49558]],[[80.19139,14.49558],[80.19149,14.49558],[80.19149,14.49549],[80.1914,14.49549],[80.19139,14.49558]],[[80.19288,14.49559],[80.19297,14.49559],[80.19297,14.4955],[80.19288,14.4955],[80.19288,14.49559]],[[80.19603,14.4956],[80.19613,14.4956],[80.19613,14.49551],[80.19622,14.49551],[80.19631,14.49533],[80.19613,14.49533],[80.19613,14.49524],[80.19604,14.49524],[80.19604,14.49488],[80.19594,14.49488],[80.19594,14.49533],[80.19604,14.49533],[80.19603,14.4956]],[[80.19808,14.49561],[80.19826,14.49561],[80.19826,14.49552],[80.19808,14.49552],[80.19808,14.49561]],[[80.19483,14.49541],[80.19492,14.49541],[80.19492,14.49532],[80.19483,14.49532],[80.19483,14.49541]],[[80.19938,14.49543],[80.19947,14.49543],[80.19947,14.49534],[80.19938,14.49534],[80.19938,14.49543]],[[80.19056,14.49531],[80.19065,14.49531],[80.19065,14.49522],[80.19056,14.49522],[80.19056,14.49531]],[[80.19891,14.49534],[80.19928,14.49534],[80.19928,14.49507],[80.19919,14.49507],[80.19919,14.49525],[80.19891,14.49525],[80.19891,14.49534]],[[80.19965,14.49534],[80.19975,14.49534],[80.19975,14.49525],[80.19965,14.49525],[80.19965,14.49534]],[[80.18954,14.49522],[80.18963,14.49522],[80.18963,14.49513],[80.18954,14.49513],[80.18954,14.49522]],[[80.19687,14.49524],[80.19696,14.49524],[80.19696,14.49515],[80.19687,14.49515],[80.19687,14.49524]],[[80.19798,14.49524],[80.19826,14.49525],[80.19826,14.49516],[80.19854,14.49516],[80.19854,14.49498],[80.19882,14.49498],[80.19882,14.49489],[80.19891,14.49489],[80.19882,14.49452],[80.19873,14.49452],[80.19873,14.4948],[80.19836,14.49479],[80.19836,14.49507],[80.19808,14.49506],[80.19798,14.49524]],[[80.19307,14.49514],[80.19325,14.49514],[80.19325,14.49505],[80.19307,14.49505],[80.19307,14.49514]],[[80.19492,14.49514],[80.19502,14.49514],[80.19502,14.49478],[80.1953,14.49478],[80.1953,14.49469],[80.19465,14.49469],[80.19474,14.49487],[80.19492,14.49487],[80.19492,14.49514]],[[80.19743,14.49488],[80.19752,14.49488],[80.19752,14.49479],[80.19743,14.49479],[80.19743,14.49488]],[[80.19455,14.49469],[80.19465,14.49469],[80.19465,14.4946],[80.19455,14.4946],[80.19455,14.49469]],[[80.19715,14.4947],[80.19734,14.4947],[80.19734,14.49461],[80.19715,14.49461],[80.19715,14.4947]],[[80.1991,14.49462],[80.19938,14.49462],[80.19938,14.49444],[80.19919,14.49444],[80.1991,14.49462]],[[80.19836,14.49452],[80.19873,14.49452],[80.19873,14.49416],[80.19864,14.49416],[80.19864,14.49425],[80.19854,14.49425],[80.19854,14.49434],[80.19845,14.49434],[80.19836,14.49452]],[[80.19901,14.49371],[80.1991,14.49371],[80.1991,14.49353],[80.19892,14.49353],[80.19901,14.49371]]]},"properties":{"feature_id":"nellore-00000","belt":"nellore","district":"","area_ha":133.43,"lon":80.190817,"lat":14.497724,"source":"obia","sensor":"Sentinel-1 RTC (VV), 10 m","season":"2024 kharif","detected":true,"surveyed":false,"likely_block":true}},{"type":"Feature","geometry":{"type":"Polygon","coordinates":[[[80.17774,14.50069],[80.17764,14.50015],[80.17802,14.50015],[80.17802,14.50006],[80.17829,14.50006],[80.17829,14.50069],[80.17774,14.50069]]]},"properties":{"feature_id":"nellore-00001","belt":"nellore","district":"","area_ha":0.42,"lon":80.178003,"lat":14.50039,"source":"obia","sensor":"Sentinel-1 RTC (VV), 10 m","season":"2024 kharif","detected":true,"surveyed":false,"likely_block":false}}]}